{
  "type": "FeatureCollection",
  "features": [
    {
      "type": "Feature",
      "properties": {
        "norad_id": 66512,
        "name": "STARLINK-35366",
        "group": "last-30-days",
        "lat": 15.700511676352008,
        "lon": -155.65787883966428,
        "alt_km": 342.5858064035001,
        "timestamp": "2025-12-02T07:10:07.867209+00:00",
        "meta_object_name": "STARLINK-35366",
        "meta_object_id": "2025-263AD",
        "meta_epoch": "2025-12-01T20:00:01.999008",
        "meta_mean_motion": 15.75020329,
        "meta_eccentricity": 0.0001584,
        "meta_inclination": 42.9986,
        "meta_ra_of_asc_node": 189.6079,
        "meta_arg_of_pericenter": 251.5704,
        "meta_mean_anomaly": 10.0614,
        "meta_ephemeris_type": 0,
        "meta_classification_type": "U",
        "meta_norad_cat_id": 66512,
        "meta_element_set_no": 999,
        "meta_rev_at_epoch": 388,
        "meta_bstar": 0.00038396,
        "meta_mean_motion_dot": 0.00058866,
        "meta_mean_motion_ddot": 0,
        "tle_line1": "1 66512U 25263AD  25335.83335647  .00058866  00000+0  38396-3 0  9999",
        "tle_line2": "2 66512  42.9986 189.6079 0001584 251.5704  10.0614 15.75020329  3887"
      },
      "geometry": {
        "type": "Point",
        "coordinates": [
          -155.65787883966428,
          15.700511676352008
        ]
      }
    },
    {
      "type": "Feature",
      "properties": {
        "norad_id": 66513,
        "name": "STARLINK-35692",
        "group": "last-30-days",
        "lat": 11.918967293367665,
        "lon": -160.10807125354953,
        "alt_km": 342.738238085225,
        "timestamp": "2025-12-02T07:10:07.867227+00:00",
        "meta_object_name": "STARLINK-35692",
        "meta_object_id": "2025-263AE",
        "meta_epoch": "2025-12-01T20:00:01.999008",
        "meta_mean_motion": 15.75049184,
        "meta_eccentricity": 0.0001487,
        "meta_inclination": 42.9985,
        "meta_ra_of_asc_node": 189.623,
        "meta_arg_of_pericenter": 273.1453,
        "meta_mean_anomaly": 342.7215,
        "meta_ephemeris_type": 0,
        "meta_classification_type": "U",
        "meta_norad_cat_id": 66513,
        "meta_element_set_no": 999,
        "meta_rev_at_epoch": 388,
        "meta_bstar": 8.9612e-05,
        "meta_mean_motion_dot": 0.00013315,
        "meta_mean_motion_ddot": 0,
        "tle_line1": "1 66513U 25263AE  25335.83335647  .00013315  00000+0  89612-4 0  9998",
        "tle_line2": "2 66513  42.9985 189.6230 0001487 273.1453 342.7215 15.75049184  3881"
      },
      "geometry": {
        "type": "Point",
        "coordinates": [
          -160.10807125354953,
          11.918967293367665
        ]
      }
    },
    {
      "type": "Feature",
      "properties": {
        "norad_id": 66514,
        "name": "SENTINEL-6B",
        "group": "last-30-days",
        "lat": 65.64625733989755,
        "lon": -96.54026126557858,
        "alt_km": 1319.51971008074,
        "timestamp": "2025-12-02T07:10:07.867245+00:00",
        "meta_object_name": "SENTINEL-6B",
        "meta_object_id": "2025-264A",
        "meta_epoch": "2025-12-01T19:31:31.024128",
        "meta_mean_motion": 12.85877276,
        "meta_eccentricity": 0.0011529,
        "meta_inclination": 66.0388,
        "meta_ra_of_asc_node": 185.2519,
        "meta_arg_of_pericenter": 268.8657,
        "meta_mean_anomaly": 91.104,
        "meta_ephemeris_type": 0,
        "meta_classification_type": "U",
        "meta_norad_cat_id": 66514,
        "meta_element_set_no": 999,
        "meta_rev_at_epoch": 188,
        "meta_bstar": 0.00031232,
        "meta_mean_motion_dot": 1.5e-07,
        "meta_mean_motion_ddot": 0,
        "tle_line1": "1 66514U 25264A   25335.81355352  .00000015  00000+0  31232-3 0  9990",
        "tle_line2": "2 66514  66.0388 185.2519 0011529 268.8657  91.1040 12.85877276  1881"
      },
      "geometry": {
        "type": "Point",
        "coordinates": [
          -96.54026126557858,
          65.64625733989755
        ]
      }
    },
    {
      "type": "Feature",
      "properties": {
        "norad_id": 66516,
        "name": "STARLINK-35924",
        "group": "last-30-days",
        "lat": 26.222319998173727,
        "lon": 148.0332715603481,
        "alt_km": 340.6825852489237,
        "timestamp": "2025-12-02T07:10:07.867267+00:00",
        "meta_object_name": "STARLINK-35924",
        "meta_object_id": "2025-265A",
        "meta_epoch": "2025-12-01T20:00:01.999008",
        "meta_mean_motion": 15.75039017,
        "meta_eccentricity": 0.0001417,
        "meta_inclination": 42.9995,
        "meta_ra_of_asc_node": 118.9473,
        "meta_arg_of_pericenter": 285.5115,
        "meta_mean_anomaly": 353.128,
        "meta_ephemeris_type": 0,
        "meta_classification_type": "U",
        "meta_norad_cat_id": 66516,
        "meta_element_set_no": 999,
        "meta_rev_at_epoch": 322,
        "meta_bstar": 4.5627e-05,
        "meta_mean_motion_dot": 6.537e-05,
        "meta_mean_motion_ddot": 0,
        "tle_line1": "1 66516U 25265A   25335.83335647  .00006537  00000+0  45627-4 0  9999",
        "tle_line2": "2 66516  42.9995 118.9473 0001417 285.5115 353.1280 15.75039017  3224"
      },
      "geometry": {
        "type": "Point",
        "coordinates": [
          148.0332715603481,
          26.222319998173727
        ]
      }
    },
    {
      "type": "Feature",
      "properties": {
        "norad_id": 66517,
        "name": "STARLINK-35937",
        "group": "last-30-days",
        "lat": 27.326915108068867,
        "lon": 149.79805351611793,
        "alt_km": 340.57196516263593,
        "timestamp": "2025-12-02T07:10:07.867286+00:00",
        "meta_object_name": "STARLINK-35937",
        "meta_object_id": "2025-265B",
        "meta_epoch": "2025-12-01T20:00:01.999008",
        "meta_mean_motion": 15.75031474,
        "meta_eccentricity": 0.0001567,
        "meta_inclination": 42.9995,
        "meta_ra_of_asc_node": 118.9427,
        "meta_arg_of_pericenter": 284.7567,
        "meta_mean_anomaly": 355.8094,
        "meta_ephemeris_type": 0,
        "meta_classification_type": "U",
        "meta_norad_cat_id": 66517,
        "meta_element_set_no": 999,
        "meta_rev_at_epoch": 324,
        "meta_bstar": 0.00013234,
        "meta_mean_motion_dot": 0.00019891,
        "meta_mean_motion_ddot": 0,
        "tle_line1": "1 66517U 25265B   25335.83335647  .00019891  00000+0  13234-3 0  9995",
        "tle_line2": "2 66517  42.9995 118.9427 0001567 284.7567 355.8094 15.75031474  3245"
      },
      "geometry": {
        "type": "Point",
        "coordinates": [
          149.79805351611793,
          27.326915108068867
        ]
      }
    },
    {
      "type": "Feature",
      "properties": {
        "norad_id": 66518,
        "name": "STARLINK-35962",
        "group": "last-30-days",
        "lat": 28.38619251902741,
        "lon": 151.5592521037354,
        "alt_km": 340.56079147418404,
        "timestamp": "2025-12-02T07:10:07.867305+00:00",
        "meta_object_name": "STARLINK-35962",
        "meta_object_id": "2025-265C",
        "meta_epoch": "2025-12-01T20:00:01.999008",
        "meta_mean_motion": 15.74945849,
        "meta_eccentricity": 0.0001867,
        "meta_inclination": 42.9994,
        "meta_ra_of_asc_node": 118.9375,
        "meta_arg_of_pericenter": 277.3915,
        "meta_mean_anomaly": 5.1027,
        "meta_ephemeris_type": 0,
        "meta_classification_type": "U",
        "meta_norad_cat_id": 66518,
        "meta_element_set_no": 999,
        "meta_rev_at_epoch": 324,
        "meta_bstar": 0.0009646,
        "meta_mean_motion_dot": 0.00149742,
        "meta_mean_motion_ddot": 0,
        "tle_line1": "1 66518U 25265C   25335.83335647  .00149742  00000+0  96460-3 0  9997",
        "tle_line2": "2 66518  42.9994 118.9375 0001867 277.3915   5.1027 15.74945849  3245"
      },
      "geometry": {
        "type": "Point",
        "coordinates": [
          151.5592521037354,
          28.38619251902741
        ]
      }
    },
    {
      "type": "Feature",
      "properties": {
        "norad_id": 66519,
        "name": "STARLINK-35931",
        "group": "last-30-days",
        "lat": 29.464029974564106,
        "lon": 153.4298235600219,
        "alt_km": 340.3982817623528,
        "timestamp": "2025-12-02T07:10:07.867327+00:00",
        "meta_object_name": "STARLINK-35931",
        "meta_object_id": "2025-265D",
        "meta_epoch": "2025-12-01T20:00:01.999008",
        "meta_mean_motion": 15.74982403,
        "meta_eccentricity": 0.0001867,
        "meta_inclination": 42.9997,
        "meta_ra_of_asc_node": 118.9329,
        "meta_arg_of_pericenter": 275.9924,
        "meta_mean_anomaly": 8.4193,
        "meta_ephemeris_type": 0,
        "meta_classification_type": "U",
        "meta_norad_cat_id": 66519,
        "meta_element_set_no": 999,
        "meta_rev_at_epoch": 324,
        "meta_bstar": 0.00082337,
        "meta_mean_motion_dot": 0.00127615,
        "meta_mean_motion_ddot": 0,
        "tle_line1": "1 66519U 25265D   25335.83335647  .00127615  00000+0  82337-3 0  9991",
        "tle_line2": "2 66519  42.9997 118.9329 0001867 275.9924   8.4193 15.74982403  3249"
      },
      "geometry": {
        "type": "Point",
        "coordinates": [
          153.4298235600219,
          29.464029974564106
        ]
      }
    }
  ]
}